[{"OBJECT_NAME":"STARLINK-3528","OBJECT_ID":"2022-016A","EPOCH":"2026-03-09T22:37:44.894208","MEAN_MOTION":15.08840637,"ECCENTRICITY":0.00012872,"INCLINATION":53.2189,"RA_OF_ASC_NODE":327.9607,"ARG_OF_PERICENTER":95.9714,"MEAN_ANOMALY":264.1425,"EPHEMERIS_TYPE":0,"CLASSIFICATION_TYPE":"U","NORAD_CAT_ID":51714,"ELEMENT_SET_NO":999,"REV_AT_EPOCH":22346,"BSTAR":-3.6292982e-5,"MEAN_MOTION_DOT":-8.65e-6,"MEAN_MOTION_DDOT":0},{"OBJECT_NAME":"PEGASUS R\/B","OBJECT_ID":"2019-068B","EPOCH":"2026-03-09T22:22:48.049248","MEAN_MOTION":15.04682366,"ECCENTRICITY":0.00118062,"INCLINATION":26.9924,"RA_OF_ASC_NODE":328.8145,"ARG_OF_PERICENTER":174.3111,"MEAN_ANOMALY":185.7586,"EPHEMERIS_TYPE":0,"CLASSIFICATION_TYPE":"U","NORAD_CAT_ID":44629,"ELEMENT_SET_NO":999,"REV_AT_EPOCH":35103,"BSTAR":0.00027730034,"MEAN_MOTION_DOT":4.233e-5,"MEAN_MOTION_DDOT":0}]
